STARLINK-34478          
1 64435U 25129Z   26035.47764570  .00020608  00000+0  17297-2 0  9990
2 64435  70.0018 158.1472 0003019 260.9282  99.1536 14.98333689 36253
STARLINK-34396          
1 64436U 25129AA  26035.50266770  .00001403  00000+0  12534-3 0  9996
2 64436  70.0019 158.2261 0002967 270.6738  89.4081 14.98332235 36250
STARLINK-34507          
1 64437U 25129AB  26035.46511022  .00001555  00000+0  13811-3 0  9992
2 64437  70.0042 158.1063 0002582 231.5044 128.5884 14.98320900 36314
STARLINK-34465          
1 64438U 25130A   26034.98779705  .00026878  00000+0  91640-3 0  9996
2 64438  53.1586 245.0493 0000546 359.5715   0.5285 15.30197690 35540
STARLINK-34456          
1 64439U 25130B   26035.30382863  .00032899  00000+0  11180-2 0  9999
2 64439  53.1579 243.4638 0001760  91.0848 269.0354 15.30197732 35591
STARLINK-34410          
1 64440U 25130C   26035.29432333  .00028000  00000+0  95345-3 0  9992
2 64440  53.1595 243.4042 0000457 245.5794 114.5159 15.30216732 35597
STARLINK-34453          
1 64441U 25130D   26034.61174597  .00033245  00000+0  11280-2 0  9995
2 64441  53.1558 246.9639 0000863  94.6913 265.4186 15.30245116 35486
STARLINK-34404          
1 64442U 25130E   26034.01124273  .00030626  00000+0  10412-2 0  9992
2 64442  53.1571 249.6167 0000486 274.0203  86.0742 15.30220998 35391
STARLINK-34403          
1 64443U 25130F   26035.29643842  .00029374  00000+0  99975-3 0  9992
2 64443  53.1575 243.4125 0001262  94.0369 266.0776 15.30207346 35599
STARLINK-34399          
1 64444U 25130G   26035.26700484  .00015935  00000+0  54896-3 0  9997
2 64444  53.1562 243.9410 0001381  85.3631 274.7528 15.30202240 35583
STARLINK-34398          
1 64445U 25130H   26035.53670622  .00025605  00000+0  87346-3 0  9999
2 64445  53.1565 242.7847 0001693  92.3768 267.7426 15.30207337 35629
STARLINK-34402          
1 64446U 25130J   26035.28799719  .00015206  00000+0  52440-3 0  9994
2 64446  53.1564 243.3634 0001479  89.7843 270.3327 15.30205269 35594
STARLINK-34450          
1 64447U 25130K   26035.53459654  .00024802  00000+0  84663-3 0  9998
2 64447  53.1573 242.7688 0001842  87.6955 272.4257 15.30203517 35625
STARLINK-34433          
1 64448U 25130L   26035.28072140  .00025457  00000+0  86879-3 0  9990
2 64448  53.1556 244.0260 0000803  92.3649 267.7444 15.30196200 35587
STARLINK-34459          
1 64449U 25130M   26034.60752531  .00034788  00000+0  11803-2 0  9996
2 64449  53.1558 246.9342 0001202 337.2585  22.8363 15.30224049 35488
STARLINK-34361          
1 64450U 25130N   26034.60224760  .00045740  00000+0  15453-2 0  9991
2 64450  53.1568 246.9007 0001881 339.6207  20.4718 15.30233552 36656
