[{"OBJECT_NAME":"STARLINK-34478","OBJECT_ID":"2025-129Z","EPOCH":"2026-02-04T11:27:48.588480","MEAN_MOTION":14.98333689,"ECCENTRICITY":0.0003019,"INCLINATION":70.0018,"RA_OF_ASC_NODE":158.1472,"ARG_OF_PERICENTER":260.9282,"MEAN_ANOMALY":99.1536,"EPHEMERIS_TYPE":0,"CLASSIFICATION_TYPE":"U","NORAD_CAT_ID":64435,"ELEMENT_SET_NO":999,"REV_AT_EPOCH":3625,"BSTAR":0.0017297,"MEAN_MOTION_DOT":0.00020608,"MEAN_MOTION_DDOT":0},{"OBJECT_NAME":"STARLINK-34396","OBJECT_ID":"2025-129AA","EPOCH":"2026-02-04T12:03:50.489280","MEAN_MOTION":14.98332235,"ECCENTRICITY":0.0002967,"INCLINATION":70.0019,"RA_OF_ASC_NODE":158.2261,"ARG_OF_PERICENTER":270.6738,"MEAN_ANOMALY":89.4081,"EPHEMERIS_TYPE":0,"CLASSIFICATION_TYPE":"U","NORAD_CAT_ID":64436,"ELEMENT_SET_NO":999,"REV_AT_EPOCH":3625,"BSTAR":0.00012534,"MEAN_MOTION_DOT":1.403e-5,"MEAN_MOTION_DDOT":0},{"OBJECT_NAME":"STARLINK-34507","OBJECT_ID":"2025-129AB","EPOCH":"2026-02-04T11:09:45.523008","MEAN_MOTION":14.983209,"ECCENTRICITY":0.0002582,"INCLINATION":70.0042,"RA_OF_ASC_NODE":158.1063,"ARG_OF_PERICENTER":231.5044,"MEAN_ANOMALY":128.5884,"EPHEMERIS_TYPE":0,"CLASSIFICATION_TYPE":"U","NORAD_CAT_ID":64437,"ELEMENT_SET_NO":999,"REV_AT_EPOCH":3631,"BSTAR":0.00013811,"MEAN_MOTION_DOT":1.555e-5,"MEAN_MOTION_DDOT":0},{"OBJECT_NAME":"STARLINK-34465","OBJECT_ID":"2025-130A","EPOCH":"2026-02-03T23:42:25.665120","MEAN_MOTION":15.3019769,"ECCENTRICITY":5.462e-5,"INCLINATION":53.1586,"RA_OF_ASC_NODE":245.0493,"ARG_OF_PERICENTER":359.5715,"MEAN_ANOMALY":0.5285,"EPHEMERIS_TYPE":0,"CLASSIFICATION_TYPE":"U","NORAD_CAT_ID":64438,"ELEMENT_SET_NO":999,"REV_AT_EPOCH":3554,"BSTAR":0.00091640487,"MEAN_MOTION_DOT":0.00026878,"MEAN_MOTION_DDOT":0},{"OBJECT_NAME":"STARLINK-34456","OBJECT_ID":"2025-130B","EPOCH":"2026-02-04T07:17:30.793632","MEAN_MOTION":15.30197732,"ECCENTRICITY":0.000176,"INCLINATION":53.1579,"RA_OF_ASC_NODE":243.4638,"ARG_OF_PERICENTER":91.0848,"MEAN_ANOMALY":269.0354,"EPHEMERIS_TYPE":0,"CLASSIFICATION_TYPE":"U","NORAD_CAT_ID":64439,"ELEMENT_SET_NO":999,"REV_AT_EPOCH":3559,"BSTAR":0.001118,"MEAN_MOTION_DOT":0.00032899,"MEAN_MOTION_DDOT":0},{"OBJECT_NAME":"STARLINK-34410","OBJECT_ID":"2025-130C","EPOCH":"2026-02-04T07:03:49.535712","MEAN_MOTION":15.30216732,"ECCENTRICITY":4.57e-5,"INCLINATION":53.1595,"RA_OF_ASC_NODE":243.4042,"ARG_OF_PERICENTER":245.5794,"MEAN_ANOMALY":114.5159,"EPHEMERIS_TYPE":0,"CLASSIFICATION_TYPE":"U","NORAD_CAT_ID":64440,"ELEMENT_SET_NO":999,"REV_AT_EPOCH":3559,"BSTAR":0.00095345,"MEAN_MOTION_DOT":0.00028,"MEAN_MOTION_DDOT":0},{"OBJECT_NAME":"STARLINK-34453","OBJECT_ID":"2025-130D","EPOCH":"2026-02-03T14:40:54.851808","MEAN_MOTION":15.30245116,"ECCENTRICITY":8.632e-5,"INCLINATION":53.1558,"RA_OF_ASC_NODE":246.9639,"ARG_OF_PERICENTER":94.6913,"MEAN_ANOMALY":265.4186,"EPHEMERIS_TYPE":0,"CLASSIFICATION_TYPE":"U","NORAD_CAT_ID":64441,"ELEMENT_SET_NO":999,"REV_AT_EPOCH":3548,"BSTAR":0.0011279892,"MEAN_MOTION_DOT":0.00033245,"MEAN_MOTION_DDOT":0},{"OBJECT_NAME":"STARLINK-34404","OBJECT_ID":"2025-130E","EPOCH":"2026-02-03T00:16:11.371872","MEAN_MOTION":15.30220998,"ECCENTRICITY":4.869e-5,"INCLINATION":53.1571,"RA_OF_ASC_NODE":249.6167,"ARG_OF_PERICENTER":274.0203,"MEAN_ANOMALY":86.0742,"EPHEMERIS_TYPE":0,"CLASSIFICATION_TYPE":"U","NORAD_CAT_ID":64442,"ELEMENT_SET_NO":999,"REV_AT_EPOCH":3539,"BSTAR":0.0010412246,"MEAN_MOTION_DOT":0.00030626,"MEAN_MOTION_DDOT":0},{"OBJECT_NAME":"STARLINK-34403","OBJECT_ID":"2025-130F","EPOCH":"2026-02-04T07:06:52.279488","MEAN_MOTION":15.30207346,"ECCENTRICITY":0.0001262,"INCLINATION":53.1575,"RA_OF_ASC_NODE":243.4125,"ARG_OF_PERICENTER":94.0369,"MEAN_ANOMALY":266.0776,"EPHEMERIS_TYPE":0,"CLASSIFICATION_TYPE":"U","NORAD_CAT_ID":64443,"ELEMENT_SET_NO":999,"REV_AT_EPOCH":3559,"BSTAR":0.00099975,"MEAN_MOTION_DOT":0.00029374,"MEAN_MOTION_DDOT":0},{"OBJECT_NAME":"STARLINK-34399","OBJECT_ID":"2025-130G","EPOCH":"2026-02-04T06:24:29.218176","MEAN_MOTION":15.3020224,"ECCENTRICITY":0.0001381,"INCLINATION":53.1562,"RA_OF_ASC_NODE":243.941,"ARG_OF_PERICENTER":85.3631,"MEAN_ANOMALY":274.7528,"EPHEMERIS_TYPE":0,"CLASSIFICATION_TYPE":"U","NORAD_CAT_ID":64444,"ELEMENT_SET_NO":999,"REV_AT_EPOCH":3558,"BSTAR":0.00054896,"MEAN_MOTION_DOT":0.00015935,"MEAN_MOTION_DDOT":0},{"OBJECT_NAME":"STARLINK-34398","OBJECT_ID":"2025-130H","EPOCH":"2026-02-04T12:52:51.417408","MEAN_MOTION":15.30207337,"ECCENTRICITY":0.0001693,"INCLINATION":53.1565,"RA_OF_ASC_NODE":242.7847,"ARG_OF_PERICENTER":92.3768,"MEAN_ANOMALY":267.7426,"EPHEMERIS_TYPE":0,"CLASSIFICATION_TYPE":"U","NORAD_CAT_ID":64445,"ELEMENT_SET_NO":999,"REV_AT_EPOCH":3562,"BSTAR":0.00087346,"MEAN_MOTION_DOT":0.00025605,"MEAN_MOTION_DDOT":0},{"OBJECT_NAME":"STARLINK-34402","OBJECT_ID":"2025-130J","EPOCH":"2026-02-04T06:54:42.957216","MEAN_MOTION":15.30205269,"ECCENTRICITY":0.0001479,"INCLINATION":53.1564,"RA_OF_ASC_NODE":243.3634,"ARG_OF_PERICENTER":89.7843,"MEAN_ANOMALY":270.3327,"EPHEMERIS_TYPE":0,"CLASSIFICATION_TYPE":"U","NORAD_CAT_ID":64446,"ELEMENT_SET_NO":999,"REV_AT_EPOCH":3559,"BSTAR":0.0005244,"MEAN_MOTION_DOT":0.00015206,"MEAN_MOTION_DDOT":0},{"OBJECT_NAME":"STARLINK-34450","OBJECT_ID":"2025-130K","EPOCH":"2026-02-04T12:49:49.141056","MEAN_MOTION":15.30203517,"ECCENTRICITY":0.0001842,"INCLINATION":53.1573,"RA_OF_ASC_NODE":242.7688,"ARG_OF_PERICENTER":87.6955,"MEAN_ANOMALY":272.4257,"EPHEMERIS_TYPE":0,"CLASSIFICATION_TYPE":"U","NORAD_CAT_ID":64447,"ELEMENT_SET_NO":999,"REV_AT_EPOCH":3562,"BSTAR":0.00084663,"MEAN_MOTION_DOT":0.00024802,"MEAN_MOTION_DDOT":0},{"OBJECT_NAME":"STARLINK-34433","OBJECT_ID":"2025-130L","EPOCH":"2026-02-04T06:44:14.328960","MEAN_MOTION":15.301962,"ECCENTRICITY":8.03e-5,"INCLINATION":53.1556,"RA_OF_ASC_NODE":244.026,"ARG_OF_PERICENTER":92.3649,"MEAN_ANOMALY":267.7444,"EPHEMERIS_TYPE":0,"CLASSIFICATION_TYPE":"U","NORAD_CAT_ID":64448,"ELEMENT_SET_NO":999,"REV_AT_EPOCH":3558,"BSTAR":0.00086879,"MEAN_MOTION_DOT":0.00025457,"MEAN_MOTION_DDOT":0},{"OBJECT_NAME":"STARLINK-34459","OBJECT_ID":"2025-130M","EPOCH":"2026-02-03T14:34:50.186784","MEAN_MOTION":15.30224049,"ECCENTRICITY":0.00012023,"INCLINATION":53.1558,"RA_OF_ASC_NODE":246.9342,"ARG_OF_PERICENTER":337.2585,"MEAN_ANOMALY":22.8363,"EPHEMERIS_TYPE":0,"CLASSIFICATION_TYPE":"U","NORAD_CAT_ID":64449,"ELEMENT_SET_NO":999,"REV_AT_EPOCH":3548,"BSTAR":0.0011803186,"MEAN_MOTION_DOT":0.00034788,"MEAN_MOTION_DDOT":0},{"OBJECT_NAME":"STARLINK-34361","OBJECT_ID":"2025-130N","EPOCH":"2026-02-03T14:27:14.192640","MEAN_MOTION":15.30233552,"ECCENTRICITY":0.00018815,"INCLINATION":53.1568,"RA_OF_ASC_NODE":246.9007,"ARG_OF_PERICENTER":339.6207,"MEAN_ANOMALY":20.4718,"EPHEMERIS_TYPE":0,"CLASSIFICATION_TYPE":"U","NORAD_CAT_ID":64450,"ELEMENT_SET_NO":999,"REV_AT_EPOCH":3665,"BSTAR":0.0015453281,"MEAN_MOTION_DOT":0.0004574,"MEAN_MOTION_DDOT":0}]
